{"type": "FeatureCollection", "features": [ {"type": "Feature", "properties": {"norad_id": 43262, "name": "GAOFEN-1 04", "group": "resource", "lat": -48.80903798094801, "lon": 50.79691215593493, "alt_km": 647.6734432176827, "timestamp": "2025-12-09T14:52:25.823581+00:00", "meta": {"OBJECT_NAME": "GAOFEN-1 04", "OBJECT_ID": "2018-031D", "EPOCH": "2025-12-09T06:57:53.769888", "MEAN_MOTION": 14.76439149, "ECCENTRICITY": 0.00011902, "INCLINATION": 98.0808, "RA_OF_ASC_NODE": 41.1244, "ARG_OF_PERICENTER": 56.9922, "MEAN_ANOMALY": 303.1402, "EPHEMERIS_TYPE": 0, "CLASSIFICATION_TYPE": "U", "NORAD_CAT_ID": 43262, "ELEMENT_SET_NO": 999, "REV_AT_EPOCH": 41466, "BSTAR": 0.00021548514, "MEAN_MOTION_DOT": 1.447e-05, "MEAN_MOTION_DDOT": 0}, "tle": {"line1": "1 43262U 18031D   25343.29020567  .00001447  00000+0  21549-3 0  9997", "line2": "2 43262  98.0808  41.1244 0001190  56.9922 303.1402 14.76439149414664"}}, "geometry": {"type": "Point", "coordinates": [50.79691215593493, -48.80903798094801]}}, {"type": "Feature", "properties": {"norad_id": 43437, "name": "SENTINEL-3B", "group": "resource", "lat": -44.7895582023224, "lon": 57.517201997098546, "alt_km": 810.281573922297, "timestamp": "2025-12-09T14:52:25.823591+00:00", "meta": {"OBJECT_NAME": "SENTINEL-3B", "OBJECT_ID": "2018-039A", "EPOCH": "2025-12-09T04:59:16.128384", "MEAN_MOTION": 14.26741015, "ECCENTRICITY": 0.00015345, "INCLINATION": 98.627, "RA_OF_ASC_NODE": 48.4435, "ARG_OF_PERICENTER": 106.2846, "MEAN_ANOMALY": 253.8504, "EPHEMERIS_TYPE": 0, "CLASSIFICATION_TYPE": "U", "NORAD_CAT_ID": 43437, "ELEMENT_SET_NO": 999, "REV_AT_EPOCH": 39703, "BSTAR": 0.00013961688, "MEAN_MOTION_DOT": 2.94e-06, "MEAN_MOTION_DDOT": 0}, "tle": {"line1": "1 43437U 18039A   25343.20782556  .00000294  00000+0  13962-3 0  9992", "line2": "2 43437  98.6270  48.4435 0001534 106.2846 253.8504 14.26741015397033"}}, "geometry": {"type": "Point", "coordinates": [57.517201997098546, -44.7895582023224]}}, {"type": "Feature", "properties": {"norad_id": 43461, "name": "GAOFEN-5 01", "group": "resource", "lat": -71.88802309662695, "lon": -26.498213180633513, "alt_km": 698.811951443412, "timestamp": "2025-12-09T14:52:25.823602+00:00", "meta": {"OBJECT_NAME": "GAOFEN-5 01", "OBJECT_ID": "2018-043A", "EPOCH": "2025-12-09T03:42:04.749696", "MEAN_MOTION": 14.604036, "ECCENTRICITY": 0.00012017, "INCLINATION": 98.432, "RA_OF_ASC_NODE": 306.0589, "ARG_OF_PERICENTER": 354.0003, "MEAN_ANOMALY": 6.1182, "EPHEMERIS_TYPE": 0, "CLASSIFICATION_TYPE": "U", "NORAD_CAT_ID": 43461, "ELEMENT_SET_NO": 999, "REV_AT_EPOCH": 40395, "BSTAR": 0.00017879054, "MEAN_MOTION_DOT": 8.17e-06, "MEAN_MOTION_DDOT": 0}, "tle": {"line1": "1 43461U 18043A   25343.15422164  .00000817  00000+0  17879-3 0  9996", "line2": "2 43461  98.4320 306.0589 0001201 354.0003   6.1182 14.60403600403959"}}, "geometry": {"type": "Point", "coordinates": [-26.498213180633513, -71.88802309662695]}}, {"type": "Feature", "properties": {"norad_id": 43484, "name": "GAOFEN-6", "group": "resource", "lat": 76.81797985715625, "lon": -96.17092614528437, "alt_km": 624.7594680540406, "timestamp": "2025-12-09T14:52:25.823613+00:00", "meta": {"OBJECT_NAME": "GAOFEN-6", "OBJECT_ID": "2018-048A", "EPOCH": "2025-12-09T07:54:54.554112", "MEAN_MOTION": 14.76555086, "ECCENTRICITY": 0.00132896, "INCLINATION": 97.8032, "RA_OF_ASC_NODE": 47.7112, "ARG_OF_PERICENTER": 73.3622, "MEAN_ANOMALY": 286.9047, "EPHEMERIS_TYPE": 0, "CLASSIFICATION_TYPE": "U", "NORAD_CAT_ID": 43484, "ELEMENT_SET_NO": 999, "REV_AT_EPOCH": 40537, "BSTAR": 0.00012931235, "MEAN_MOTION_DOT": 8.54e-06, "MEAN_MOTION_DDOT": 0}, "tle": {"line1": "1 43484U 18048A   25343.32979808  .00000854  00000+0  12931-3 0  9992", "line2": "2 43484  97.8032  47.7112 0013289  73.3622 286.9047 14.76555086405374"}}, "geometry": {"type": "Point", "coordinates": [-96.17092614528437, 76.81797985715625]}}, {"type": "Feature", "properties": {"norad_id": 43585, "name": "GAOFEN-11 01", "group": "resource", "lat": 6.630660532927207, "lon": -132.58255211894905, "alt_km": 424.46184288069617, "timestamp": "2025-12-09T14:52:25.823623+00:00", "meta": {"OBJECT_NAME": "GAOFEN-11 01", "OBJECT_ID": "2018-063A", "EPOCH": "2025-12-09T07:55:37.169184", "MEAN_MOTION": 15.49072208, "ECCENTRICITY": 0.00045758, "INCLINATION": 97.1555, "RA_OF_ASC_NODE": 46.2937, "ARG_OF_PERICENTER": 329.6021, "MEAN_ANOMALY": 30.4965, "EPHEMERIS_TYPE": 0, "CLASSIFICATION_TYPE": "U", "NORAD_CAT_ID": 43585, "ELEMENT_SET_NO": 999, "REV_AT_EPOCH": 41089, "BSTAR": 0.00037611498, "MEAN_MOTION_DOT": 0.00020344, "MEAN_MOTION_DDOT": 0}, "tle": {"line1": "1 43585U 18063A   25343.33029131  .00020344  00000+0  37611-3 0  9995", "line2": "2 43585  97.1555  46.2937 0004575 329.6021  30.4965 15.49072208410891"}}, "geometry": {"type": "Point", "coordinates": [-132.58255211894905, 6.630660532927207]}}, {"type": "Feature", "properties": {"norad_id": 43613, "name": "ICESAT-2", "group": "resource", "lat": 35.988236905880676, "lon": 61.352586201396484, "alt_km": 477.1857339452372, "timestamp": "2025-12-09T14:52:25.823633+00:00", "meta": {"OBJECT_NAME": "ICESAT-2", "OBJECT_ID": "2018-070A", "EPOCH": "2025-12-09T06:23:19.508928", "MEAN_MOTION": 15.28259026, "ECCENTRICITY": 0.00022311, "INCLINATION": 92.0044, "RA_OF_ASC_NODE": 239.7998, "ARG_OF_PERICENTER": 157.9495, "MEAN_ANOMALY": 202.1851, "EPHEMERIS_TYPE": 0, "CLASSIFICATION_TYPE": "U", "NORAD_CAT_ID": 43613, "ELEMENT_SET_NO": 999, "REV_AT_EPOCH": 40345, "BSTAR": 0.00059975684, "MEAN_MOTION_DOT": 0.00016519, "MEAN_MOTION_DDOT": 0}, "tle": {"line1": "1 43613U 18070A   25343.26619802  .00016519  00000+0  59976-3 0  9994", "line2": "2 43613  92.0044 239.7998 0002231 157.9495 202.1851 15.28259026403458"}}, "geometry": {"type": "Point", "coordinates": [61.352586201396484, 35.988236905880676]}}, {"type": "Feature", "properties": {"norad_id": 43719, "name": "HYSIS", "group": "resource", "lat": 66.10432845747481, "lon": -114.85725981306624, "alt_km": 626.6100622910053, "timestamp": "2025-12-09T14:52:25.823644+00:00", "meta": {"OBJECT_NAME": "HYSIS", "OBJECT_ID": "2018-096A", "EPOCH": "2025-12-09T07:52:13.260864", "MEAN_MOTION": 14.78630328, "ECCENTRICITY": 0.00014889, "INCLINATION": 98.0094, "RA_OF_ASC_NODE": 46.3222, "ARG_OF_PERICENTER": 58.0226, "MEAN_ANOMALY": 302.113, "EPHEMERIS_TYPE": 0, "CLASSIFICATION_TYPE": "U", "NORAD_CAT_ID": 43719, "ELEMENT_SET_NO": 999, "REV_AT_EPOCH": 37936, "BSTAR": 0.00031088894, "MEAN_MOTION_DOT": 2.225e-05, "MEAN_MOTION_DDOT": 0}, "tle": {"line1": "1 43719U 18096A   25343.32793126  .00002225  00000+0  31089-3 0  9992", "line2": "2 43719  98.0094  46.3222 0001488  58.0226 302.1130 14.78630328379369"}}, "geometry": {"type": "Point", "coordinates": [-114.85725981306624, 66.10432845747481]}}, {"type": "Feature", "properties": {"norad_id": 43783, "name": "KAZSTSAT", "group": "resource", "lat": 62.33937424322019, "lon": -146.59283853473093, "alt_km": 565.7960870001916, "timestamp": "2025-12-09T14:52:25.823654+00:00", "meta": {"OBJECT_NAME": "KAZSTSAT", "OBJECT_ID": "2018-099AB", "EPOCH": "2025-12-09T01:32:30.411168", "MEAN_MOTION": 14.99334862, "ECCENTRICITY": 0.00061035, "INCLINATION": 97.4556, "RA_OF_ASC_NODE": 18.407, "ARG_OF_PERICENTER": 345.3373, "MEAN_ANOMALY": 14.7673, "EPHEMERIS_TYPE": 0, "CLASSIFICATION_TYPE": "U", "NORAD_CAT_ID": 43783, "ELEMENT_SET_NO": 999, "REV_AT_EPOCH": 38281, "BSTAR": 0.00018723562, "MEAN_MOTION_DOT": 2.233e-05, "MEAN_MOTION_DDOT": 0}, "tle": {"line1": "1 43783U 18099AB  25343.06424087  .00002233  00000+0  18724-3 0  9994", "line2": "2 43783  97.4556  18.4070 0006103 345.3373  14.7673 14.99334862382810"}}, "geometry": {"type": "Point", "coordinates": [-146.59283853473093, 62.33937424322019]}}, {"type": "Feature", "properties": {"norad_id": 43831, "name": "SAUDISAT 5A", "group": "resource", "lat": -54.10421395569583, "lon": -146.381496053054, "alt_km": 503.0168066778624, "timestamp": "2025-12-09T14:52:25.823664+00:00", "meta": {"OBJECT_NAME": "SAUDISAT 5A", "OBJECT_ID": "2018-102A", "EPOCH": "2025-12-09T07:33:08.587872", "MEAN_MOTION": 15.25590518, "ECCENTRICITY": 0.0011831, "INCLINATION": 97.3352, "RA_OF_ASC_NODE": 43.5716, "ARG_OF_PERICENTER": 86.8194, "MEAN_ANOMALY": 273.4398, "EPHEMERIS_TYPE": 0, "CLASSIFICATION_TYPE": "U", "NORAD_CAT_ID": 43831, "ELEMENT_SET_NO": 999, "REV_AT_EPOCH": 38670, "BSTAR": 0.00035943308, "MEAN_MOTION_DOT": 9.078e-05, "MEAN_MOTION_DDOT": 0}, "tle": {"line1": "1 43831U 18102A   25343.31468273  .00009078  00000+0  35943-3 0  9992", "line2": "2 43831  97.3352  43.5716 0011831  86.8194 273.4398 15.25590518386707"}}, "geometry": {"type": "Point", "coordinates": [-146.381496053054, -54.10421395569583]}}, {"type": "Feature", "properties": {"norad_id": 43833, "name": "SAUDISAT 5B", "group": "resource", "lat": -75.2446836047738, "lon": 75.92736903553273, "alt_km": 503.5957670821508, "timestamp": "2025-12-09T14:52:25.823675+00:00", "meta": {"OBJECT_NAME": "SAUDISAT 5B", "OBJECT_ID": "2018-102C", "EPOCH": "2025-12-09T07:20:34.974240", "MEAN_MOTION": 15.25944506, "ECCENTRICITY": 0.001253, "INCLINATION": 97.3447, "RA_OF_ASC_NODE": 46.2956, "ARG_OF_PERICENTER": 89.1169, "MEAN_ANOMALY": 271.1505, "EPHEMERIS_TYPE": 0, "CLASSIFICATION_TYPE": "U", "NORAD_CAT_ID": 43833, "ELEMENT_SET_NO": 999, "REV_AT_EPOCH": 38681, "BSTAR": 0.00032134705, "MEAN_MOTION_DOT": 8.197e-05, "MEAN_MOTION_DDOT": 0}, "tle": {"line1": "1 43833U 18102C   25343.30596035  .00008197  00000+0  32135-3 0  9992", "line2": "2 43833  97.3447  46.2956 0012530  89.1169 271.1505 15.25944506386812"}}, "geometry": {"type": "Point", "coordinates": [75.92736903553273, -75.2446836047738]}}]}